{
  "type": "FeatureCollection",
  "features": [
    {
      "type": "Feature",
      "properties": {
        "norad_id": 30050,
        "name": "FENGYUN 1C DEB",
        "group": "fengyun-1c-debris",
        "lat": -13.500931273211812,
        "lon": 133.77989641504888,
        "alt_km": 1070.4346864491517,
        "timestamp": "2025-12-24T09:46:31.277487+00:00",
        "meta_object_name": "FENGYUN 1C DEB",
        "meta_object_id": "1999-025PB",
        "meta_epoch": "2025-12-24T03:43:26.865984",
        "meta_mean_motion": 13.85082315,
        "meta_eccentricity": 0.0171039,
        "meta_inclination": 96.8192,
        "meta_ra_of_asc_node": 315.2425,
        "meta_arg_of_pericenter": 357.7966,
        "meta_mean_anomaly": 19.751,
        "meta_ephemeris_type": 0,
        "meta_classification_type": "U",
        "meta_norad_cat_id": 30050,
        "meta_element_set_no": 999,
        "meta_rev_at_epoch": 95360,
        "meta_bstar": 0.0011734,
        "meta_mean_motion_dot": 1.462e-05,
        "meta_mean_motion_ddot": 0,
        "tle_line1": "1 30050U 99025PB  25358.15517206  .00001462  00000+0  11734-2 0  9993",
        "tle_line2": "2 30050  96.8192 315.2425 0171039 357.7966  19.7510 13.85082315953603"
      },
      "geometry": {
        "type": "Point",
        "coordinates": [
          133.77989641504888,
          -13.500931273211812
        ]
      }
    },
    {
      "type": "Feature",
      "properties": {
        "norad_id": 30052,
        "name": "FENGYUN 1C DEB",
        "group": "fengyun-1c-debris",
        "lat": -31.685937850404233,
        "lon": 29.48595266923746,
        "alt_km": 1116.8981661784937,
        "timestamp": "2025-12-24T09:46:31.277498+00:00",
        "meta_object_name": "FENGYUN 1C DEB",
        "meta_object_id": "1999-025PD",
        "meta_epoch": "2025-12-24T01:28:47.264160",
        "meta_mean_motion": 13.72973269,
        "meta_eccentricity": 0.0289351,
        "meta_inclination": 99.2983,
        "meta_ra_of_asc_node": 23.3459,
        "meta_arg_of_pericenter": 202.5799,
        "meta_mean_anomaly": 215.1231,
        "meta_ephemeris_type": 0,
        "meta_classification_type": "U",
        "meta_norad_cat_id": 30052,
        "meta_element_set_no": 999,
        "meta_rev_at_epoch": 94710,
        "meta_bstar": 0.0004344,
        "meta_mean_motion_dot": 4.98e-06,
        "meta_mean_motion_ddot": 0,
        "tle_line1": "1 30052U 99025PD  25358.06165815  .00000498  00000+0  43440-3 0  9998",
        "tle_line2": "2 30052  99.2983  23.3459 0289351 202.5799 215.1231 13.72973269947105"
      },
      "geometry": {
        "type": "Point",
        "coordinates": [
          29.48595266923746,
          -31.685937850404233
        ]
      }
    },
    {
      "type": "Feature",
      "properties": {
        "norad_id": 30053,
        "name": "FENGYUN 1C DEB",
        "group": "fengyun-1c-debris",
        "lat": -26.99270638785854,
        "lon": 175.1178140367852,
        "alt_km": 702.2701593247784,
        "timestamp": "2025-12-24T09:46:31.277509+00:00",
        "meta_object_name": "FENGYUN 1C DEB",
        "meta_object_id": "1999-025PE",
        "meta_epoch": "2025-12-23T11:48:31.178592",
        "meta_mean_motion": 13.9419757,
        "meta_eccentricity": 0.03314562,
        "meta_inclination": 98.576,
        "meta_ra_of_asc_node": 169.8578,
        "meta_arg_of_pericenter": 308.5155,
        "meta_mean_anomaly": 111.2397,
        "meta_ephemeris_type": 0,
        "meta_classification_type": "U",
        "meta_norad_cat_id": 30053,
        "meta_element_set_no": 999,
        "meta_rev_at_epoch": 95136,
        "meta_bstar": 0.0015987647,
        "meta_mean_motion_dot": 3.306e-05,
        "meta_mean_motion_ddot": 0,
        "tle_line1": "1 30053U 99025PE  25357.49202753  .00003306  00000+0  15988-2 0  9994",
        "tle_line2": "2 30053  98.5760 169.8578 0331456 308.5155 111.2397 13.94197570951365"
      },
      "geometry": {
        "type": "Point",
        "coordinates": [
          175.1178140367852,
          -26.99270638785854
        ]
      }
    },
    {
      "type": "Feature",
      "properties": {
        "norad_id": 30054,
        "name": "FENGYUN 1C DEB",
        "group": "fengyun-1c-debris",
        "lat": 47.091188318603514,
        "lon": -139.4204926444428,
        "alt_km": 1182.1493970014753,
        "timestamp": "2025-12-24T09:46:31.277520+00:00",
        "meta_object_name": "FENGYUN 1C DEB",
        "meta_object_id": "1999-025PF",
        "meta_epoch": "2025-12-24T00:42:43.837920",
        "meta_mean_motion": 13.69877944,
        "meta_eccentricity": 0.0275472,
        "meta_inclination": 99.3706,
        "meta_ra_of_asc_node": 29.9793,
        "meta_arg_of_pericenter": 335.8761,
        "meta_mean_anomaly": 93.5337,
        "meta_ephemeris_type": 0,
        "meta_classification_type": "U",
        "meta_norad_cat_id": 30054,
        "meta_element_set_no": 999,
        "meta_rev_at_epoch": 94503,
        "meta_bstar": 0.0004825,
        "meta_mean_motion_dot": 5.08e-06,
        "meta_mean_motion_ddot": 0,
        "tle_line1": "1 30054U 99025PF  25358.02967405  .00000508  00000+0  48250-3 0  9997",
        "tle_line2": "2 30054  99.3706  29.9793 0275472 335.8761  93.5337 13.69877944945036"
      },
      "geometry": {
        "type": "Point",
        "coordinates": [
          -139.4204926444428,
          47.091188318603514
        ]
      }
    },
    {
      "type": "Feature",
      "properties": {
        "norad_id": 30056,
        "name": "FENGYUN 1C DEB",
        "group": "fengyun-1c-debris",
        "lat": -68.21313485256655,
        "lon": -18.90892385324275,
        "alt_km": 912.7830694184395,
        "timestamp": "2025-12-24T09:46:31.277530+00:00",
        "meta_object_name": "FENGYUN 1C DEB",
        "meta_object_id": "1999-025PH",
        "meta_epoch": "2025-12-23T23:50:27.188736",
        "meta_mean_motion": 13.74050619,
        "meta_eccentricity": 0.0299046,
        "meta_inclination": 98.3227,
        "meta_ra_of_asc_node": 182.2122,
        "meta_arg_of_pericenter": 180.4268,
        "meta_mean_anomaly": 179.6673,
        "meta_ephemeris_type": 0,
        "meta_classification_type": "U",
        "meta_norad_cat_id": 30056,
        "meta_element_set_no": 999,
        "meta_rev_at_epoch": 94130,
        "meta_bstar": 0.0023518,
        "meta_mean_motion_dot": 3.019e-05,
        "meta_mean_motion_ddot": 0,
        "tle_line1": "1 30056U 99025PH  25357.99337024  .00003019  00000+0  23518-2 0  9991",
        "tle_line2": "2 30056  98.3227 182.2122 0299046 180.4268 179.6673 13.74050619941306"
      },
      "geometry": {
        "type": "Point",
        "coordinates": [
          -18.90892385324275,
          -68.21313485256655
        ]
      }
    },
    {
      "type": "Feature",
      "properties": {
        "norad_id": 30057,
        "name": "FENGYUN 1C DEB",
        "group": "fengyun-1c-debris",
        "lat": 19.713594844794603,
        "lon": 62.81832451682105,
        "alt_km": 1063.8986092323494,
        "timestamp": "2025-12-24T09:46:31.277541+00:00",
        "meta_object_name": "FENGYUN 1C DEB",
        "meta_object_id": "1999-025PJ",
        "meta_epoch": "2025-12-23T10:47:18.846816",
        "meta_mean_motion": 13.57146809,
        "meta_eccentricity": 0.02918995,
        "meta_inclination": 98.8825,
        "meta_ra_of_asc_node": 65.1642,
        "meta_arg_of_pericenter": 118.931,
        "meta_mean_anomaly": 267.4713,
        "meta_ephemeris_type": 0,
        "meta_classification_type": "U",
        "meta_norad_cat_id": 30057,
        "meta_element_set_no": 999,
        "meta_rev_at_epoch": 93381,
        "meta_bstar": 0.001104167,
        "meta_mean_motion_dot": 1.001e-05,
        "meta_mean_motion_ddot": 0,
        "tle_line1": "1 30057U 99025PJ  25357.44952369  .00001001  00000+0  11042-2 0  9995",
        "tle_line2": "2 30057  98.8825  65.1642 0291899 118.9310 267.4713 13.57146809933810"
      },
      "geometry": {
        "type": "Point",
        "coordinates": [
          62.81832451682105,
          19.713594844794603
        ]
      }
    },
    {
      "type": "Feature",
      "properties": {
        "norad_id": 30058,
        "name": "FENGYUN 1C DEB",
        "group": "fengyun-1c-debris",
        "lat": 71.66065699940604,
        "lon": -28.609739085847178,
        "alt_km": 913.2293332028858,
        "timestamp": "2025-12-24T09:46:31.277551+00:00",
        "meta_object_name": "FENGYUN 1C DEB",
        "meta_object_id": "1999-025PK",
        "meta_epoch": "2025-12-23T11:01:59.370816",
        "meta_mean_motion": 13.48249939,
        "meta_eccentricity": 0.0315759,
        "meta_inclination": 99.6498,
        "meta_ra_of_asc_node": 1.3544,
        "meta_arg_of_pericenter": 125.765,
        "meta_mean_anomaly": 34.3133,
        "meta_ephemeris_type": 0,
        "meta_classification_type": "U",
        "meta_norad_cat_id": 30058,
        "meta_element_set_no": 999,
        "meta_rev_at_epoch": 92992,
        "meta_bstar": 0.00070029,
        "meta_mean_motion_dot": 5.48e-06,
        "meta_mean_motion_ddot": 0,
        "tle_line1": "1 30058U 99025PK  25357.45971494  .00000548  00000+0  70029-3 0  9993",
        "tle_line2": "2 30058  99.6498   1.3544 0315759 125.7650  34.3133 13.48249939929926"
      },
      "geometry": {
        "type": "Point",
        "coordinates": [
          -28.609739085847178,
          71.66065699940604
        ]
      }
    }
  ]
}